{"type": "FeatureCollection", "features": [ {"type": "Feature", "properties": {"norad_id": 31171, "name": "FENGYUN 1C DEB", "group": "fengyun-1c-debris", "lat": 20.360610091494824, "lon": 154.87548781194351, "alt_km": 886.406796299686, "timestamp": "2025-12-07T20:38:14.344437+00:00", "meta": {"OBJECT_NAME": "FENGYUN 1C DEB", "OBJECT_ID": "1999-025BHZ", "EPOCH": "2025-12-07T05:06:25.155360", "MEAN_MOTION": 14.34555534, "ECCENTRICITY": 0.01553115, "INCLINATION": 98.0155, "RA_OF_ASC_NODE": 331.2772, "ARG_OF_PERICENTER": 333.2641, "MEAN_ANOMALY": 86.3497, "EPHEMERIS_TYPE": 0, "CLASSIFICATION_TYPE": "U", "NORAD_CAT_ID": 31171, "ELEMENT_SET_NO": 999, "REV_AT_EPOCH": 95751, "BSTAR": 0.0080018336, "MEAN_MOTION_DOT": 0.00025921, "MEAN_MOTION_DDOT": 0}, "tle": {"line1": "1 31171U 99025BHZ 25341.21279115  .00025921  00000+0  80018-2 0  9998", "line2": "2 31171  98.0155 331.2772 0155311 333.2641  86.3497 14.34555534957519"}}, "geometry": {"type": "Point", "coordinates": [154.87548781194351, 20.360610091494824]}}, {"type": "Feature", "properties": {"norad_id": 31172, "name": "FENGYUN 1C DEB", "group": "fengyun-1c-debris", "lat": 65.43279936886677, "lon": -174.60594265549426, "alt_km": 884.7991116258345, "timestamp": "2025-12-07T20:38:14.344446+00:00", "meta": {"OBJECT_NAME": "FENGYUN 1C DEB", "OBJECT_ID": "1999-025BJA", "EPOCH": "2025-12-07T06:40:53.692608", "MEAN_MOTION": 14.31504839, "ECCENTRICITY": 0.01481468, "INCLINATION": 98.4248, "RA_OF_ASC_NODE": 345.9127, "ARG_OF_PERICENTER": 284.8338, "MEAN_ANOMALY": 73.6477, "EPHEMERIS_TYPE": 0, "CLASSIFICATION_TYPE": "U", "NORAD_CAT_ID": 31172, "ELEMENT_SET_NO": 999, "REV_AT_EPOCH": 97548, "BSTAR": 0.0003034592, "MEAN_MOTION_DOT": 8.63e-06, "MEAN_MOTION_DDOT": 0}, "tle": {"line1": "1 31172U 99025BJA 25341.27839922  .00000863  00000+0  30346-3 0  9991", "line2": "2 31172  98.4248 345.9127 0148146 284.8338  73.6477 14.31504839975487"}}, "geometry": {"type": "Point", "coordinates": [-174.60594265549426, 65.43279936886677]}}, {"type": "Feature", "properties": {"norad_id": 31175, "name": "FENGYUN 1C DEB", "group": "fengyun-1c-debris", "lat": -57.005834690481805, "lon": 148.82183688090362, "alt_km": 672.1032265917756, "timestamp": "2025-12-07T20:38:14.344456+00:00", "meta": {"OBJECT_NAME": "FENGYUN 1C DEB", "OBJECT_ID": "1999-025BJD", "EPOCH": "2025-12-07T06:23:34.740384", "MEAN_MOTION": 14.59732697, "ECCENTRICITY": 0.00731586, "INCLINATION": 98.3992, "RA_OF_ASC_NODE": 341.3748, "ARG_OF_PERICENTER": 183.3298, "MEAN_ANOMALY": 176.7424, "EPHEMERIS_TYPE": 0, "CLASSIFICATION_TYPE": "U", "NORAD_CAT_ID": 31175, "ELEMENT_SET_NO": 999, "REV_AT_EPOCH": 65559, "BSTAR": 0.0064869448, "MEAN_MOTION_DOT": 0.00032217, "MEAN_MOTION_DDOT": 0}, "tle": {"line1": "1 31175U 99025BJD 25341.26637431  .00032217  00000+0  64869-2 0  9998", "line2": "2 31175  98.3992 341.3748 0073158 183.3298 176.7424 14.59732697655591"}}, "geometry": {"type": "Point", "coordinates": [148.82183688090362, -57.005834690481805]}}, {"type": "Feature", "properties": {"norad_id": 31177, "name": "FENGYUN 1C DEB", "group": "fengyun-1c-debris", "lat": 44.250623157476326, "lon": 84.42099633204126, "alt_km": 1249.7001719510545, "timestamp": "2025-12-07T20:38:14.344466+00:00", "meta": {"OBJECT_NAME": "FENGYUN 1C DEB", "OBJECT_ID": "1999-025BJF", "EPOCH": "2025-12-01T06:04:03.773280", "MEAN_MOTION": 13.62101426, "ECCENTRICITY": 0.0311511, "INCLINATION": 98.7576, "RA_OF_ASC_NODE": 249.8401, "ARG_OF_PERICENTER": 343.5186, "MEAN_ANOMALY": 168.581, "EPHEMERIS_TYPE": 0, "CLASSIFICATION_TYPE": "U", "NORAD_CAT_ID": 31177, "ELEMENT_SET_NO": 999, "REV_AT_EPOCH": 66055, "BSTAR": 0.0077346, "MEAN_MOTION_DOT": 8.228e-05, "MEAN_MOTION_DDOT": 0}, "tle": {"line1": "1 31177U 99025BJF 25335.25282145  .00008228  00000+0  77346-2 0  9999", "line2": "2 31177  98.7576 249.8401 0311511 343.5186 168.5810 13.62101426660550"}}, "geometry": {"type": "Point", "coordinates": [84.42099633204126, 44.250623157476326]}}, {"type": "Feature", "properties": {"norad_id": 31178, "name": "FENGYUN 1C DEB", "group": "fengyun-1c-debris", "lat": -55.3691548284524, "lon": 149.66229231464933, "alt_km": 828.572472870098, "timestamp": "2025-12-07T20:38:14.344476+00:00", "meta": {"OBJECT_NAME": "FENGYUN 1C DEB", "OBJECT_ID": "1999-025BJG", "EPOCH": "2025-12-06T18:11:26.359008", "MEAN_MOTION": 14.2211652, "ECCENTRICITY": 0.01262985, "INCLINATION": 99.5126, "RA_OF_ASC_NODE": 342.525, "ARG_OF_PERICENTER": 332.4835, "MEAN_ANOMALY": 26.9691, "EPHEMERIS_TYPE": 0, "CLASSIFICATION_TYPE": "U", "NORAD_CAT_ID": 31178, "ELEMENT_SET_NO": 999, "REV_AT_EPOCH": 95730, "BSTAR": 0.0038182639, "MEAN_MOTION_DOT": 9.132e-05, "MEAN_MOTION_DDOT": 0}, "tle": {"line1": "1 31178U 99025BJG 25340.75794397  .00009132  00000+0  38183-2 0  9999", "line2": "2 31178  99.5126 342.5250 0126298 332.4835  26.9691 14.22116520957302"}}, "geometry": {"type": "Point", "coordinates": [149.66229231464933, -55.3691548284524]}}, {"type": "Feature", "properties": {"norad_id": 31179, "name": "FENGYUN 1C DEB", "group": "fengyun-1c-debris", "lat": -73.79572561950602, "lon": 148.78308620422422, "alt_km": 999.7523362671891, "timestamp": "2025-12-07T20:38:14.344486+00:00", "meta": {"OBJECT_NAME": "FENGYUN 1C DEB", "OBJECT_ID": "1999-025BJH", "EPOCH": "2025-12-05T07:01:13.321920", "MEAN_MOTION": 13.91889906, "ECCENTRICITY": 0.0215815, "INCLINATION": 99.0199, "RA_OF_ASC_NODE": 359.4166, "ARG_OF_PERICENTER": 21.1371, "MEAN_ANOMALY": 339.8541, "EPHEMERIS_TYPE": 0, "CLASSIFICATION_TYPE": "U", "NORAD_CAT_ID": 31179, "ELEMENT_SET_NO": 999, "REV_AT_EPOCH": 61837, "BSTAR": 0.0018729323, "MEAN_MOTION_DOT": 2.844e-05, "MEAN_MOTION_DDOT": 0}, "tle": {"line1": "1 31179U 99025BJH 25339.29251530  .00002844  00000+0  18729-2 0  9991", "line2": "2 31179  99.0199 359.4166 0215815  21.1371 339.8541 13.91889906618373"}}, "geometry": {"type": "Point", "coordinates": [148.78308620422422, -73.79572561950602]}}, {"type": "Feature", "properties": {"norad_id": 31180, "name": "FENGYUN 1C DEB", "group": "fengyun-1c-debris", "lat": 21.513928149914033, "lon": 109.91108118553194, "alt_km": 755.3848893276563, "timestamp": "2025-12-07T20:38:14.344496+00:00", "meta": {"OBJECT_NAME": "FENGYUN 1C DEB", "OBJECT_ID": "1999-025BJJ", "EPOCH": "2025-12-06T07:52:38.506080", "MEAN_MOTION": 13.70333762, "ECCENTRICITY": 0.04984764, "INCLINATION": 99.2184, "RA_OF_ASC_NODE": 112.1065, "ARG_OF_PERICENTER": 76.8265, "MEAN_ANOMALY": 317.4167, "EPHEMERIS_TYPE": 0, "CLASSIFICATION_TYPE": "U", "NORAD_CAT_ID": 31180, "ELEMENT_SET_NO": 999, "REV_AT_EPOCH": 63979, "BSTAR": 0.00040899855, "MEAN_MOTION_DOT": 8.33e-06, "MEAN_MOTION_DDOT": 0}, "tle": {"line1": "1 31180U 99025BJJ 25340.32822345  .00000833  00000+0  40900-3 0  9990", "line2": "2 31180  99.2184 112.1065 0498476  76.8265 317.4167 13.70333762639794"}}, "geometry": {"type": "Point", "coordinates": [109.91108118553194, 21.513928149914033]}}, {"type": "Feature", "properties": {"norad_id": 31181, "name": "FENGYUN 1C DEB", "group": "fengyun-1c-debris", "lat": -80.16000826949836, "lon": 131.5812115142287, "alt_km": 895.1185917951789, "timestamp": "2025-12-07T20:38:14.344506+00:00", "meta": {"OBJECT_NAME": "FENGYUN 1C DEB", "OBJECT_ID": "1999-025BJK", "EPOCH": "2025-12-06T13:29:50.146080", "MEAN_MOTION": 14.11856129, "ECCENTRICITY": 0.00481542, "INCLINATION": 98.7747, "RA_OF_ASC_NODE": 13.2463, "ARG_OF_PERICENTER": 91.6254, "MEAN_ANOMALY": 62.7516, "EPHEMERIS_TYPE": 0, "CLASSIFICATION_TYPE": "U", "NORAD_CAT_ID": 31181, "ELEMENT_SET_NO": 999, "REV_AT_EPOCH": 95680, "BSTAR": 0.0016824405, "MEAN_MOTION_DOT": 3.063e-05, "MEAN_MOTION_DDOT": 0}, "tle": {"line1": "1 31181U 99025BJK 25340.56238595  .00003063  00000+0  16824-2 0  9990", "line2": "2 31181  98.7747  13.2463 0048154  91.6254  62.7516 14.11856129956809"}}, "geometry": {"type": "Point", "coordinates": [131.5812115142287, -80.16000826949836]}}, {"type": "Feature", "properties": {"norad_id": 31182, "name": "FENGYUN 1C DEB", "group": "fengyun-1c-debris", "lat": 10.663851980800787, "lon": -30.778501670198303, "alt_km": 857.6978762518374, "timestamp": "2025-12-07T20:38:14.344516+00:00", "meta": {"OBJECT_NAME": "FENGYUN 1C DEB", "OBJECT_ID": "1999-025BJL", "EPOCH": "2025-11-30T19:23:45.055104", "MEAN_MOTION": 14.14526628, "ECCENTRICITY": 0.00226562, "INCLINATION": 98.6809, "RA_OF_ASC_NODE": 324.0155, "ARG_OF_PERICENTER": 170.3323, "MEAN_ANOMALY": 311.2725, "EPHEMERIS_TYPE": 0, "CLASSIFICATION_TYPE": "U", "NORAD_CAT_ID": 31182, "ELEMENT_SET_NO": 999, "REV_AT_EPOCH": 95912, "BSTAR": 0.00037537528, "MEAN_MOTION_DOT": 6.79e-06, "MEAN_MOTION_DDOT": 0}, "tle": {"line1": "1 31182U 99025BJL 25334.80816036  .00000679  00000+0  37538-3 0  9999", "line2": "2 31182  98.6809 324.0155 0022656 170.3323 311.2725 14.14526628959123"}}, "geometry": {"type": "Point", "coordinates": [-30.778501670198303, 10.663851980800787]}}, {"type": "Feature", "properties": {"norad_id": 31183, "name": "FENGYUN 1C DEB", "group": "fengyun-1c-debris", "lat": 12.940029273479661, "lon": -36.84906935525962, "alt_km": 736.1199810380631, "timestamp": "2025-12-07T20:38:14.344525+00:00", "meta": {"OBJECT_NAME": "FENGYUN 1C DEB", "OBJECT_ID": "1999-025BJM", "EPOCH": "2025-12-07T05:44:45.777408", "MEAN_MOTION": 14.50359786, "ECCENTRICITY": 0.00472483, "INCLINATION": 99.0359, "RA_OF_ASC_NODE": 324.581, "ARG_OF_PERICENTER": 123.6767, "MEAN_ANOMALY": 252.2502, "EPHEMERIS_TYPE": 0, "CLASSIFICATION_TYPE": "U", "NORAD_CAT_ID": 31183, "ELEMENT_SET_NO": 999, "REV_AT_EPOCH": 97403, "BSTAR": 0.0019325322, "MEAN_MOTION_DOT": 7.605e-05, "MEAN_MOTION_DDOT": 0}, "tle": {"line1": "1 31183U 99025BJM 25341.23941872  .00007605  00000+0  19325-2 0  9991", "line2": "2 31183  99.0359 324.5810 0047248 123.6767 252.2502 14.50359786974032"}}, "geometry": {"type": "Point", "coordinates": [-36.84906935525962, 12.940029273479661]}}]}